[{"OBJECT_NAME":"APRIZESAT 2","OBJECT_ID":"2004-025A","EPOCH":"2026-03-09T10:28:26.148000","MEAN_MOTION":14.37988294,"ECCENTRICITY":0.01054712,"INCLINATION":98.091,"RA_OF_ASC_NODE":240.1116,"ARG_OF_PERICENTER":190.5785,"MEAN_ANOMALY":169.3185,"EPHEMERIS_TYPE":0,"CLASSIFICATION_TYPE":"U","NORAD_CAT_ID":28366,"ELEMENT_SET_NO":999,"REV_AT_EPOCH":13730,"BSTAR":0.00014374466,"MEAN_MOTION_DOT":4.21e-6,"MEAN_MOTION_DDOT":0},{"OBJECT_NAME":"SL-8 R\/B","OBJECT_ID":"1988-053B","EPOCH":"2026-03-09T14:20:34.971936","MEAN_MOTION":14.38915667,"ECCENTRICITY":0.0021414,"INCLINATION":74.046,"RA_OF_ASC_NODE":112.6362,"ARG_OF_PERICENTER":291.898,"MEAN_ANOMALY":184.3804,"EPHEMERIS_TYPE":0,"CLASSIFICATION_TYPE":"U","NORAD_CAT_ID":19257,"ELEMENT_SET_NO":999,"REV_AT_EPOCH":97658,"BSTAR":0.00010511,"MEAN_MOTION_DOT":2.98e-6,"MEAN_MOTION_DDOT":0}]
